OBJECT_NAME,OBJECT_ID,EPOCH,MEAN_MOTION,ECCENTRICITY,INCLINATION,RA_OF_ASC_NODE,ARG_OF_PERICENTER,MEAN_ANOMALY,EPHEMERIS_TYPE,CLASSIFICATION_TYPE,NORAD_CAT_ID,ELEMENT_SET_NO,REV_AT_EPOCH,BSTAR,MEAN_MOTION_DOT,MEAN_MOTION_DDOT
GEOSCAN 3 (RS92S3),2025-155T,2026-07-19T13:43:45.065568,15.36402011,.00084196,97.4560,170.8549,75.8109,284.4069,0,U,64893,999,8582,.27849833E-3,.9818E-4,0
INNOSAT 3 (RS92S0),2025-155U,2026-07-19T15:09:20.072448,15.46035589,.00080023,97.4505,172.9629,80.5476,279.6678,0,U,64894,999,8597,.50000704E-3,.24399E-3,0
KNACKSAT-2,1998-067XZ,2026-07-19T05:22:27.952032,15.62683564,.00081481,51.6273,132.9886,342.4900,17.5813,0,U,67683,999,2528,.37973859E-3,.34381E-3,0
