GEOSCAN-3 (RS92S3)
1 64893U 25155T   26200.57204937  .00009818  00000-0  27850-3 0  9996
2 64893  97.4560 170.8549 0008420  75.8109 284.4069 15.36402011 85820
INNOSAT3 (RS92S0)
1 64894U 25155U   26200.63148232  .00024399  00000-0  50001-3 0  9994
2 64894  97.4505 172.9629 0008002  80.5476 279.6678 15.46035589 85979
KNACKSAT-2
1 67683U 98067XZ  26200.22393463  .00034381  00000-0  37974-3 0  9994
2 67683  51.6273 132.9886 0008148 342.4900  17.5813 15.62683564 25284
